[{"OBJECT_NAME":"STARLINK-32186","OBJECT_ID":"2024-141Q","EPOCH":"2026-03-09T17:24:38.432448","MEAN_MOTION":15.30187065,"ECCENTRICITY":0.00011185,"INCLINATION":53.1601,"RA_OF_ASC_NODE":242.5968,"ARG_OF_PERICENTER":84.5128,"MEAN_ANOMALY":275.6,"EPHEMERIS_TYPE":0,"CLASSIFICATION_TYPE":"U","NORAD_CAT_ID":60412,"ELEMENT_SET_NO":999,"REV_AT_EPOCH":8952,"BSTAR":-6.883346e-6,"MEAN_MOTION_DOT":-5.63e-6,"MEAN_MOTION_DDOT":0},{"OBJECT_NAME":"D-SAT","OBJECT_ID":"2017-036AF","EPOCH":"2026-03-09T22:00:14.910336","MEAN_MOTION":15.15529522,"ECCENTRICITY":0.00852401,"INCLINATION":97.5487,"RA_OF_ASC_NODE":48.252,"ARG_OF_PERICENTER":144.4633,"MEAN_ANOMALY":216.2319,"EPHEMERIS_TYPE":0,"CLASSIFICATION_TYPE":"U","NORAD_CAT_ID":42794,"ELEMENT_SET_NO":999,"REV_AT_EPOCH":47581,"BSTAR":0.00038655305,"MEAN_MOTION_DOT":7.964e-5,"MEAN_MOTION_DDOT":0}]
